[{"OBJECT_NAME":"STARLINK-30214","OBJECT_ID":"2023-102H","EPOCH":"2026-03-09T22:00:01.999584","MEAN_MOTION":15.16864915,"ECCENTRICITY":0.00019718,"INCLINATION":42.9997,"RA_OF_ASC_NODE":246.4866,"ARG_OF_PERICENTER":280.5737,"MEAN_ANOMALY":98.4796,"EPHEMERIS_TYPE":0,"CLASSIFICATION_TYPE":"U","NORAD_CAT_ID":57411,"ELEMENT_SET_NO":999,"REV_AT_EPOCH":578,"BSTAR":0.0062663792,"MEAN_MOTION_DOT":0.00127643,"MEAN_MOTION_DDOT":0},{"OBJECT_NAME":"LILIUM-3","OBJECT_ID":"2025-276DJ","EPOCH":"2026-03-09T16:54:54.141120","MEAN_MOTION":15.18939749,"ECCENTRICITY":0.00011225,"INCLINATION":97.4313,"RA_OF_ASC_NODE":144.1145,"ARG_OF_PERICENTER":186.7966,"MEAN_ANOMALY":173.3253,"EPHEMERIS_TYPE":0,"CLASSIFICATION_TYPE":"U","NORAD_CAT_ID":66770,"ELEMENT_SET_NO":999,"REV_AT_EPOCH":1532,"BSTAR":0.00016352677,"MEAN_MOTION_DOT":3.348e-5,"MEAN_MOTION_DDOT":0}]
